[{"OBJECT_NAME":"YUNHAI-2 01E","OBJECT_ID":"2018-112E","EPOCH":"2026-03-09T23:43:19.223616","MEAN_MOTION":14.28966536,"ECCENTRICITY":0.0005031,"INCLINATION":50.0058,"RA_OF_ASC_NODE":227.8366,"ARG_OF_PERICENTER":19.8799,"MEAN_ANOMALY":340.2311,"EPHEMERIS_TYPE":0,"CLASSIFICATION_TYPE":"U","NORAD_CAT_ID":43913,"ELEMENT_SET_NO":999,"REV_AT_EPOCH":37497,"BSTAR":0.00013746904,"MEAN_MOTION_DOT":1.88e-6,"MEAN_MOTION_DDOT":0},{"OBJECT_NAME":"THORAD AGENA D DEB","OBJECT_ID":"1970-025JS","EPOCH":"2026-03-09T13:19:23.306304","MEAN_MOTION":14.28609769,"ECCENTRICITY":0.0050878,"INCLINATION":99.6371,"RA_OF_ASC_NODE":107.6037,"ARG_OF_PERICENTER":58.6218,"MEAN_ANOMALY":301.9923,"EPHEMERIS_TYPE":0,"CLASSIFICATION_TYPE":"U","NORAD_CAT_ID":5149,"ELEMENT_SET_NO":999,"REV_AT_EPOCH":84739,"BSTAR":0.001108,"MEAN_MOTION_DOT":2.769e-5,"MEAN_MOTION_DDOT":0}]
